{"zip_codes":[{"zip_code":"71082","distance":47.93,"city":"Vivian","state":"LA"},{"zip_code":"71029","distance":49.59,"city":"Gilliam","state":"LA"},{"zip_code":"75564","distance":46.048,"city":"Lodi","state":"TX"},{"zip_code":"71043","distance":45.524,"city":"Hosston","state":"LA"},{"zip_code":"71064","distance":48.996,"city":"Plain Dealing","state":"LA"},{"zip_code":"75562","distance":41.052,"city":"Kildare","state":"TX"},{"zip_code":"75565","distance":40.58,"city":"Mc Leod","state":"TX"},{"zip_code":"75555","distance":39.567,"city":"Bivins","state":"TX"},{"zip_code":"71044","distance":41.178,"city":"Ida","state":"LA"},{"zip_code":"71069","distance":38.517,"city":"Rodessa","state":"LA"},{"zip_code":"75563","distance":38.007,"city":"Linden","state":"TX"},{"zip_code":"75656","distance":42.86,"city":"Hughes Springs","state":"TX"},{"zip_code":"75638","distance":48.346,"city":"Daingerfield","state":"TX"},{"zip_code":"71826","distance":37.441,"city":"Bradley","state":"AR"},{"zip_code":"71861","distance":46.349,"city":"Taylor","state":"AR"},{"zip_code":"71834","distance":29.258,"city":"Doddridge","state":"AR"},{"zip_code":"75551","distance":27.574,"city":"Atlanta","state":"TX"},{"zip_code":"75566","distance":32.513,"city":"Marietta","state":"TX"},{"zip_code":"75556","distance":25.011,"city":"Bloomburg","state":"TX"},{"zip_code":"75560","distance":26.183,"city":"Douglassville","state":"TX"},{"zip_code":"75568","distance":34.185,"city":"Naples","state":"TX"},{"zip_code":"75571","distance":42.485,"city":"Omaha","state":"TX"},{"zip_code":"75572","distance":19.758,"city":"Queen City","state":"TX"},{"zip_code":"75558","distance":45.725,"city":"Cookville","state":"TX"},{"zip_code":"71837","distance":24.345,"city":"Fouke","state":"AR"},{"zip_code":"71860","distance":40.209,"city":"Stamps","state":"AR"},{"zip_code":"75567","distance":17.247,"city":"Maud","state":"TX"},{"zip_code":"71845","distance":31.336,"city":"Lewisville","state":"AR"},{"zip_code":"75574","distance":27.269,"city":"Simms","state":"TX"},{"zip_code":"71839","distance":26.364,"city":"Garland City","state":"AR"},{"zip_code":"75573","distance":12.566,"city":"Redwater","state":"TX"},{"zip_code":"75501","distance":9.677,"city":"Texarkana","state":"TX"},{"zip_code":"71840","distance":15.803,"city":"Genoa","state":"AR"},{"zip_code":"71770","distance":47.838,"city":"Waldo","state":"AR"},{"zip_code":"71827","distance":42.92,"city":"Buckner","state":"AR"},{"zip_code":"75504","distance":6.187,"city":"Texarkana","state":"TX"},{"zip_code":"75505","distance":6.187,"city":"Texarkana","state":"TX"},{"zip_code":"75507","distance":6.187,"city":"Texarkana","state":"TX"},{"zip_code":"75599","distance":6.187,"city":"Texarkana","state":"TX"},{"zip_code":"75569","distance":4.845,"city":"Nash","state":"TX"},{"zip_code":"71854","distance":15.116,"city":"Texarkana","state":"AR"},{"zip_code":"75570","distance":17.935,"city":"New Boston","state":"TX"},{"zip_code":"75550","distance":43.615,"city":"Annona","state":"TX"},{"zip_code":"75559","distance":28.425,"city":"De Kalb","state":"TX"},{"zip_code":"71864","distance":48.62,"city":"Willisville","state":"AR"},{"zip_code":"75503","distance":0,"city":"Texarkana","state":"TX"},{"zip_code":"75561","distance":8.489,"city":"Hooks","state":"TX"},{"zip_code":"75554","distance":37.334,"city":"Avery","state":"TX"},{"zip_code":"71853","distance":12.626,"city":"Ogden","state":"AR"},{"zip_code":"71835","distance":41.584,"city":"Emmet","state":"AR"},{"zip_code":"71801","distance":32.169,"city":"Hope","state":"AR"},{"zip_code":"71838","distance":20.93,"city":"Fulton","state":"AR"},{"zip_code":"71802","distance":32.961,"city":"Hope","state":"AR"},{"zip_code":"71822","distance":10.534,"city":"Ashdown","state":"AR"},{"zip_code":"71844","distance":47.158,"city":"Laneburg","state":"AR"},{"zip_code":"71836","distance":20.667,"city":"Foreman","state":"AR"},{"zip_code":"71865","distance":15.862,"city":"Wilton","state":"AR"},{"zip_code":"71859","distance":20.605,"city":"Saratoga","state":"AR"},{"zip_code":"71831","distance":24.438,"city":"Columbus","state":"AR"},{"zip_code":"74740","distance":32.404,"city":"Haworth","state":"OK"},{"zip_code":"71862","distance":29.807,"city":"Washington","state":"AR"},{"zip_code":"71820","distance":21.413,"city":"Alleene","state":"AR"},{"zip_code":"71857","distance":49.985,"city":"Prescott","state":"AR"},{"zip_code":"71823","distance":21.948,"city":"Ben Lomond","state":"AR"},{"zip_code":"71851","distance":26.245,"city":"Mineral Springs","state":"AR"},{"zip_code":"74745","distance":45.99,"city":"Idabel","state":"OK"},{"zip_code":"71855","distance":32.866,"city":"Ozan","state":"AR"},{"zip_code":"71866","distance":29.72,"city":"Winthrop","state":"AR"},{"zip_code":"71825","distance":41.735,"city":"Blevins","state":"AR"},{"zip_code":"71842","distance":28.386,"city":"Horatio","state":"AR"},{"zip_code":"71847","distance":40.46,"city":"Mc Caskill","state":"AR"},{"zip_code":"71846","distance":29.847,"city":"Lockesburg","state":"AR"},{"zip_code":"71852","distance":37.186,"city":"Nashville","state":"AR"},{"zip_code":"71940","distance":49.917,"city":"Delight","state":"AR"},{"zip_code":"71832","distance":38.365,"city":"De Queen","state":"AR"},{"zip_code":"74734","distance":47.056,"city":"Eagletown","state":"OK"},{"zip_code":"71833","distance":43.863,"city":"Dierks","state":"AR"},{"zip_code":"71841","distance":46.449,"city":"Gillham","state":"AR"}]}